[{"OBJECT_NAME":"HORS 2","OBJECT_ID":"2023-091AG","EPOCH":"2026-03-09T22:11:34.810944","MEAN_MOTION":15.2928008,"ECCENTRICITY":0.00098173,"INCLINATION":97.5195,"RA_OF_ASC_NODE":134.7443,"ARG_OF_PERICENTER":79.3164,"MEAN_ANOMALY":280.9181,"EPHEMERIS_TYPE":0,"CLASSIFICATION_TYPE":"U","NORAD_CAT_ID":57196,"ELEMENT_SET_NO":999,"REV_AT_EPOCH":14934,"BSTAR":0.00059338338,"MEAN_MOTION_DOT":0.00016821,"MEAN_MOTION_DDOT":0},{"OBJECT_NAME":"STARLINK-30299","OBJECT_ID":"2023-122U","EPOCH":"2026-03-09T22:00:01.999584","MEAN_MOTION":15.26729319,"ECCENTRICITY":0.00012109,"INCLINATION":43.0012,"RA_OF_ASC_NODE":91.1032,"ARG_OF_PERICENTER":264.2979,"MEAN_ANOMALY":72.0056,"EPHEMERIS_TYPE":0,"CLASSIFICATION_TYPE":"U","NORAD_CAT_ID":57650,"ELEMENT_SET_NO":999,"REV_AT_EPOCH":578,"BSTAR":0.0013863718,"MEAN_MOTION_DOT":0.00037103,"MEAN_MOTION_DDOT":0}]
